YAOGAN-36 04C           
1 54750U 22171E   26068.78871400  .00016196  00000+0  54592-3 0  9991
2 54750  34.9797  96.6578 0006685 275.3761  84.6192 15.29852307180246
STARLINK-33720          
1 63468U 25070J   26068.54516576  .00022742  00000+0  83312-3 0  9998
2 63468  42.9952 260.6789 0000623 340.7460  19.3367 15.27590949 52954
